[{"OBJECT_NAME":"JILIN-1 05","OBJECT_ID":"2017-074B","EPOCH":"2026-03-09T21:56:30.612480","MEAN_MOTION":15.3245271,"ECCENTRICITY":0.00045948,"INCLINATION":97.4781,"RA_OF_ASC_NODE":173.8936,"ARG_OF_PERICENTER":206.4038,"MEAN_ANOMALY":153.6971,"EPHEMERIS_TYPE":0,"CLASSIFICATION_TYPE":"U","NORAD_CAT_ID":43023,"ELEMENT_SET_NO":999,"REV_AT_EPOCH":45879,"BSTAR":0.00026108793,"MEAN_MOTION_DOT":8.104e-5,"MEAN_MOTION_DDOT":0},{"OBJECT_NAME":"STARLINK-30399","OBJECT_ID":"2023-148S","EPOCH":"2026-03-09T04:14:08.879424","MEAN_MOTION":15.30189213,"ECCENTRICITY":0.00013452,"INCLINATION":53.1624,"RA_OF_ASC_NODE":26.6571,"ARG_OF_PERICENTER":108.3132,"MEAN_ANOMALY":251.8015,"EPHEMERIS_TYPE":0,"CLASSIFICATION_TYPE":"U","NORAD_CAT_ID":57951,"ELEMENT_SET_NO":999,"REV_AT_EPOCH":13834,"BSTAR":-2.3928317e-5,"MEAN_MOTION_DOT":-1.068e-5,"MEAN_MOTION_DDOT":0}]
